{"type":"FeatureCollection","features":[{"type":"Feature","properties":{"name":"Base Road"},"geometry":{"type":"LineString","coordinates":[[103.57733298,-2.75722001,0],[103.5764748,-2.75687573,0],[103.5755969,-2.75668712,0],[103.5747014,-2.75660351,0],[103.573803,-2.75658178,0],[103.5729037,-2.75659075,0],[103.5720044,-2.75660598,0],[103.5711051,-2.75660949,0],[103.5702315,-2.75641744,0],[103.569421,-2.75602609,0],[103.568636,-2.75558538,0],[103.5678929,-2.75507613,0],[103.5671574,-2.75455605,0],[103.5664214,-2.75403631,0],[103.5656862,-2.75351543,0],[103.5649523,-2.75299266,0],[103.5642191,-2.75246896,0],[103.5634202,-2.75207144,0],[103.5625311,-2.75215478,0],[103.5616549,-2.75235859,0],[103.5607742,-2.75254087,0],[103.559889,-2.75270046,0],[103.5590108,-2.75289517,0],[103.558166,-2.7532015,0],[103.5573356,-2.75354883,0],[103.5564974,-2.75387661,0],[103.5556242,-2.75408926,0],[103.5547368,-2.75423442,0],[103.5538384,-2.75426983,0],[103.5529401,-2.75430054,0],[103.5520449,-2.75434531,0],[103.5511865,-2.75408817,0],[103.5504533,-2.75356696,0],[103.5497808,-2.75296653,0],[103.5490819,-2.75239797,0],[103.5485134,-2.75169899,0],[103.5479723,-2.7509768,0],[103.5474415,-2.75024676,0],[103.5469099,-2.74951726,0],[103.5463795,-2.74878691,0],[103.5458341,-2.74806787,0],[103.545261,-2.74737097,0],[103.5446834,-2.74667788,0],[103.544077,-2.74600998,0],[103.5434683,-2.74534422,0],[103.5428591,-2.74467892,0],[103.5422352,-2.74402799,0],[103.5414826,-2.74354175,0],[103.5406206,-2.7432872,0],[103.5397415,-2.74309678,0],[103.5388568,-2.74293426,0],[103.5379654,-2.74281465,0],[103.5370712,-2.74271849,0],[103.5361867,-2.74255569,0],[103.5353212,-2.74231263,0],[103.5344789,-2.74199646,0],[103.5336731,-2.74159502,0],[103.5328753,-2.74117755,0],[103.5320788,-2.7407574,0],[103.5312729,-2.74035614,0],[103.5304646,-2.73995949,0],[103.5296613,-2.73955288,0],[103.52887,-2.73912304,0],[103.5280874,-2.73867737,0],[103.5273134,-2.73821704,0],[103.5266184,-2.73764947,0],[103.5261189,-2.7369001,0],[103.525628,-2.73614235,0],[103.5251231,-2.73539392,0],[103.5246035,-2.73465576,0],[103.5240856,-2.73391657,0],[103.5236097,-2.73314925,0],[103.5230817,-2.73241829,0],[103.5223913,-2.7318395,0],[103.5217897,-2.7311688,0],[103.521282,-2.73042253,0],[103.5207034,-2.72973169,0],[103.5200627,-2.72909702,0],[103.5194399,-2.72844466,0],[103.5188313,-2.72777873,0],[103.518211,-2.72712399,0],[103.5175673,-2.72649235,0],[103.516926,-2.72585831,0],[103.5162868,-2.72522207,0],[103.5155772,-2.72467082,0],[103.5147598,-2.72429572,0],[103.5139156,-2.72398599,0],[103.5130376,-2.72379539,0],[103.5121527,-2.72389421,0],[103.5113014,-2.7241851,0],[103.5104513,-2.72448042,0],[103.5095915,-2.72474457,0],[103.508727,-2.72499348,0],[103.5078528,-2.72520324,0],[103.506958,-2.72528922,0],[103.5060613,-2.72525187,0],[103.5051708,-2.72512512,0],[103.5042787,-2.72501084,0],[103.5033978,-2.72483288,0],[103.5025413,-2.72455764,0],[103.5016771,-2.72430741,0],[103.500806,-2.72408241,0],[103.4999403,-2.72383825,0],[103.4991208,-2.72346709,0],[103.4983197,-2.72305641,0],[103.4975341,-2.72261615,0],[103.4967017,-2.72227717,0],[103.4958633,-2.72195098,0],[103.4950244,-2.72162611,0],[103.4941799,-2.72131558,0],[103.4933337,-2.72100919,0],[103.4924721,-2.7207502,0],[103.4915963,-2.72054613,0],[103.4907065,-2.72048698,0],[103.4899191,-2.72091957,0],[103.4891523,-2.72138872,0],[103.4884562,-2.7219609,0],[103.4877262,-2.72248913,0],[103.4870128,-2.72303938,0],[103.4863603,-2.72366086,0],[103.4858485,-2.72440106,0],[103.4854487,-2.72521066,0],[103.4850615,-2.72602684,0],[103.4849002,-2.72690646,0],[103.4848368,-2.72780656,0],[103.4845457,-2.72866147,0],[103.4842167,-2.72950318,0],[103.4839031,-2.73035076,0],[103.4835893,-2.73119829,0],[103.483274,-2.7320451,0],[103.4828786,-2.73285101,0],[103.4821343,-2.73335585,0],[103.481397,-2.73387258,0],[103.4806038,-2.7342827,0],[103.479714,-2.73440732,0],[103.4788262,-2.73454751,0],[103.4779353,-2.73466867,0],[103.4770395,-2.73472745,0],[103.4761592,-2.73454806,0],[103.4752851,-2.73433538,0],[103.474402,-2.73416472,0],[103.4735153,-2.73401423,0],[103.4726315,-2.73384667,0],[103.4717475,-2.73368136,0],[103.4708733,-2.73347974,0],[103.4701087,-2.73300655,0],[103.4694132,-2.73243492,0],[103.4687655,-2.73180765,0],[103.4681695,-2.73113245,0],[103.4676269,-2.7304117,0],[103.4670407,-2.7297259,0],[103.4664754,-2.72902256,0],[103.4659109,-2.72831857,0],[103.4653179,-2.72763946,0],[103.4646224,-2.72706701,0],[103.4639089,-2.72651799,0],[103.4633092,-2.72584443,0],[103.4627082,-2.72517257,0],[103.4620181,-2.72459309,0],[103.4612501,-2.72414282,0],[103.4604311,-2.72447404,0],[103.4597964,-2.72508774,0],[103.4595303,-2.72594484,0],[103.4590187,-2.72668842,0],[103.4584368,-2.7273777,0],[103.4578172,-2.72803201,0],[103.4570188,-2.72844701,0],[103.4562146,-2.72885191,0],[103.4554964,-2.72938301,0],[103.4548094,-2.7299216,0],[103.4539539,-2.72967754,0],[103.4530971,-2.72940502,0],[103.452273,-2.72904617,0],[103.451488,-2.72860562,0],[103.4507483,-2.72809137,0],[103.4500055,-2.72758157,0],[103.4492491,-2.72709242,0],[103.4484955,-2.72659896,0],[103.4477912,-2.72603966,0],[103.4472227,-2.72534039,0],[103.4465994,-2.7246982,0],[103.4457566,-2.72442696,0],[103.4448794,-2.72462284,0],[103.4439854,-2.72467518,0],[103.4430948,-2.72455344,0],[103.4422098,-2.72439247,0],[103.4413222,-2.72425001,0],[103.440426,-2.72428782,0],[103.439541,-2.72444575,0],[103.4386456,-2.72442277,0],[103.437767,-2.7242317,0],[103.436895,-2.72403689,0],[103.4359994,-2.72411783,0],[103.4351148,-2.7240051,0],[103.4342531,-2.72374613,0],[103.4334102,-2.72343548,0],[103.4325318,-2.7232424,0],[103.431651,-2.72305992,0],[103.4307678,-2.72288989,0],[103.4298838,-2.72272362,0],[103.4289954,-2.72258566,0],[103.4281064,-2.72245113,0],[103.427278,-2.72211435,0],[103.4264637,-2.7217319,0],[103.4256462,-2.72135639,0],[103.424835,-2.7209671,0],[103.4239618,-2.72079635,0],[103.4230663,-2.72087092,0],[103.4221822,-2.72103601,0],[103.4213248,-2.72130656,0],[103.4204973,-2.72166009,0],[103.4197551,-2.72216655,0],[103.419094,-2.72277967,0],[103.4184888,-2.72344469,0],[103.4181223,-2.72426681,0],[103.4179284,-2.72514977,0],[103.4177736,-2.72604039,0],[103.4176379,-2.72693428,0],[103.4176069,-2.72783736,0],[103.4175691,-2.72874034,0],[103.4172644,-2.72958556,0],[103.4168333,-2.73037908,0],[103.4163829,-2.73116187,0],[103.415905,-2.73192762,0],[103.4154955,-2.7327143,0],[103.415357,-2.73360777,0],[103.4155529,-2.7344657,0],[103.4162655,-2.73500132,0],[103.4170444,-2.73545206,0],[103.4178,-2.73594246,0],[103.4186015,-2.73634945,0],[103.4194038,-2.73675596,0],[103.4201727,-2.73722487,0],[103.4209254,-2.7377192,0],[103.4216175,-2.738287,0],[103.422091,-2.73905537,0],[103.4225581,-2.73982778,0],[103.4230298,-2.74059769,0],[103.4233895,-2.74142183,0],[103.4235328,-2.74231438,0],[103.423673,-2.74320766,0],[103.4238013,-2.74410258,0],[103.4238014,-2.74500569,0],[103.4237616,-2.74590915,0],[103.4236127,-2.74679848,0],[103.4233886,-2.74767257,0],[103.423465,-2.74857066,0],[103.4235445,-2.74946949,0],[103.4234829,-2.75037095,0],[103.4233154,-2.75125937,0],[103.4230554,-2.75212422,0],[103.4228184,-2.75299529,0],[103.4227134,-2.75389236,0],[103.4224459,-2.75475538,0],[103.4220522,-2.75556645,0],[103.4215861,-2.75633986,0],[103.4211681,-2.75714007,0],[103.4207786,-2.7579551,0],[103.420363,-2.75875662,0],[103.4198469,-2.75949652,0],[103.4193538,-2.76025251,0],[103.4188693,-2.7610144,0],[103.4184049,-2.76178882,0],[103.4178938,-2.76252991,0],[103.4171986,-2.76310254,0],[103.4164799,-2.76364414,0],[103.4156629,-2.76401858,0],[103.4148225,-2.76433995,0],[103.4139783,-2.76464732,0],[103.4130997,-2.76483968,0],[103.4122161,-2.76500723,0],[103.4113309,-2.76516707,0],[103.4104377,-2.76523788,0],[103.4095392,-2.76520139,0],[103.4087195,-2.76486243,0],[103.4080376,-2.76427369,0],[103.4073252,-2.7637262,0],[103.4065451,-2.76327647,0],[103.4058562,-2.76270492,0],[103.4052956,-2.7620052,0],[103.4051901,-2.76121079,0],[103.4045108,-2.76061829,0],[103.4038494,-2.76000672,0],[103.4032314,-2.75935183,0],[103.4025309,-2.7587848,0],[103.4018248,-2.75822482,0],[103.4012244,-2.75755291,0],[103.4006214,-2.75688376,0],[103.3998741,-2.75638197,0],[103.399067,-2.75599152,0],[103.3981898,-2.75579404,0],[103.3972963,-2.75577977,0],[103.3964083,-2.7559226,0],[103.3955216,-2.7560738,0],[103.3946347,-2.75622351,0],[103.393749,-2.75637941,0],[103.3928635,-2.75653719,0],[103.391995,-2.75676403,0],[103.3912481,-2.75725849,0],[103.3908182,-2.75804523,0],[103.3907323,-2.75893646,0],[103.390905,-2.75982307,0],[103.3912071,-2.76067417,0],[103.3915643,-2.76150377,0],[103.3919615,-2.76231337,0],[103.3924524,-2.76307056,0],[103.3929646,-2.76381365,0],[103.3934507,-2.76457442,0],[103.3939146,-2.76534914,0],[103.3943433,-2.76614398,0],[103.3947319,-2.76695942,0],[103.3950625,-2.76780033,0],[103.3953763,-2.76864743,0],[103.395698,-2.76949186,0],[103.3960381,-2.77032862,0],[103.3965222,-2.77108955,0],[103.3970292,-2.77183648,0],[103.3975455,-2.77257694,0],[103.3981145,-2.77327629,0],[103.3987536,-2.77391233,0],[103.3994188,-2.77451774,0],[103.4000337,-2.77517,0],[103.4003257,-2.77599485,0],[103.4003874,-2.77689698,0],[103.4002929,-2.77779391,0],[103.3999568,-2.77862419,0],[103.3993112,-2.77922549,0],[103.3988768,-2.78001675,0],[103.3984703,-2.78082324,0],[103.3979463,-2.78155637,0],[103.3972082,-2.78206245,0],[103.3963865,-2.7824296,0],[103.395612,-2.78288887,0],[103.3948698,-2.7833972,0],[103.3942045,-2.78400515,0],[103.3935534,-2.78462895,0],[103.3928914,-2.7852407,0],[103.3922,-2.78581907,0],[103.3914661,-2.78634103,0],[103.390702,-2.78681753,0],[103.3898778,-2.78717823,0],[103.3890421,-2.78751244,0],[103.3882216,-2.78788253,0],[103.3874114,-2.78827499,0],[103.3866049,-2.78867523,0],[103.3858209,-2.78911746,0],[103.3850965,-2.78965269,0],[103.3843623,-2.7901743,0],[103.3835827,-2.79062156,0],[103.3827323,-2.79091541,0],[103.3818833,-2.79121375,0],[103.381023,-2.7914752,0],[103.3801297,-2.79157358,0],[103.3792689,-2.79181548,0],[103.3783948,-2.79197209,0],[103.3775153,-2.79211691,0],[103.3766461,-2.79234748,0],[103.375766,-2.792533,0],[103.3749125,-2.79281642,0],[103.374046,-2.79305386,0],[103.3731649,-2.79323468,0],[103.3722907,-2.79344665,0],[103.3714246,-2.79369043,0],[103.3705537,-2.79391591,0],[103.3696866,-2.79415422,0],[103.3688514,-2.79448871,0],[103.368031,-2.7948579,0],[103.3672316,-2.79527216,0],[103.3664599,-2.7957359,0],[103.3657891,-2.79633354,0],[103.3652014,-2.7970179,0],[103.3646594,-2.79773893,0],[103.364125,-2.79846554,0],[103.3635501,-2.79916084,0],[103.3630426,-2.79990645,0],[103.3627817,-2.80077041,0],[103.3623774,-2.80157457,0],[103.3618422,-2.80229915,0],[103.3612084,-2.80294028,0],[103.3606255,-2.80362624,0],[103.3601012,-2.8043608,0],[103.3596142,-2.80512099,0],[103.3591559,-2.80589881,0],[103.3587033,-2.80668027,0],[103.3582279,-2.80744684,0],[103.3576206,-2.80811031,0],[103.356949,-2.8087099,0],[103.3561811,-2.80917884,0],[103.355418,-2.80965694,0],[103.3546862,-2.81018234,0],[103.3539471,-2.81069586,0],[103.3531701,-2.81115119,0],[103.35244,-2.81167817,0],[103.3516674,-2.81214041,0],[103.3508607,-2.81253931,0],[103.3500278,-2.81288001,0],[103.3491882,-2.81320405,0],[103.3483599,-2.81355634,0],[103.3475217,-2.81388399,0],[103.3466537,-2.81410876,0],[103.3457709,-2.81395755,0],[103.344892,-2.81377079,0],[103.3440021,-2.81386925,0],[103.3431136,-2.81400682,0],[103.3422281,-2.81416023,0],[103.3413541,-2.81437117,0],[103.3404604,-2.81447202,0],[103.3395932,-2.81468618,0],[103.3388487,-2.81518998,0],[103.3382448,-2.81585396,0],[103.3381658,-2.81673634,0],[103.3383396,-2.81762237,0],[103.3386404,-2.81847427,0],[103.338868,-2.81934817,0],[103.3391465,-2.82020736,0],[103.339416,-2.82106836,0],[103.3396018,-2.82195303,0],[103.3397656,-2.82284216,0],[103.339978,-2.82372083,0],[103.3401661,-2.82460491,0],[103.3403116,-2.82549731,0],[103.3404523,-2.8263905,0],[103.3405195,-2.82681601,0],[103.3406615,-2.82770898,0],[103.3408082,-2.8286012,0],[103.3409512,-2.82949403,0],[103.3410704,-2.83039015,0],[103.341043,-2.83129173,0],[103.3408618,-2.83217678,0],[103.3405034,-2.83300415,0],[103.3399883,-2.83374368,0],[103.3393639,-2.83439425,0],[103.3387286,-2.83503438,0],[103.3380921,-2.83567325,0],[103.337458,-2.83631458,0],[103.336827,-2.83695891,0],[103.3362485,-2.83764993,0],[103.3357732,-2.8384175,0],[103.3353083,-2.83919163,0],[103.3348481,-2.83996848,0],[103.3343884,-2.84074577,0],[103.3339368,-2.8415277,0],[103.3334485,-2.84228623,0],[103.3328174,-2.84292796,0],[103.3320956,-2.84346622,0],[103.3313488,-2.84397024,0],[103.3306017,-2.84447367,0],[103.3298565,-2.84498002,0],[103.3291105,-2.84548485,0],[103.3283109,-2.84589459,0],[103.3274576,-2.84617995,0],[103.3266095,-2.84648073,0],[103.3258018,-2.84687534,0],[103.3250625,-2.84738762,0],[103.3244524,-2.84805078,0],[103.323839,-2.84871104,0],[103.3231738,-2.84931932,0],[103.3225074,-2.84992664,0],[103.3218603,-2.85055465,0],[103.321223,-2.85119271,0],[103.3206309,-2.85187328,0],[103.3200033,-2.85251987,0],[103.3193298,-2.85311917,0],[103.3186438,-2.85370367,0],[103.3179263,-2.85424877,0],[103.317147,-2.85469501,0],[103.3163083,-2.8550216,0],[103.3155224,-2.85545114,0],[103.3148619,-2.85606448,0],[103.3141996,-2.8566763,0],[103.3135966,-2.85733554,0],[103.3135375,-2.85823179,0],[103.313565,-2.85913559,0],[103.313573,-2.86003979,0],[103.3134637,-2.86093407,0],[103.3133465,-2.86182716,0],[103.3133725,-2.86273072,0],[103.3135559,-2.86361335,0],[103.3139974,-2.86439922,0],[103.3145305,-2.8651275,0],[103.3150671,-2.86585279,0],[103.3151592,-2.86669965,0],[103.3145489,-2.86733814,0],[103.3137717,-2.8677929,0],[103.3129434,-2.86814285,0],[103.3120888,-2.86842425,0],[103.3112729,-2.86880374,0],[103.3104743,-2.86921976,0],[103.3096745,-2.86963341,0],[103.3088606,-2.87001606,0],[103.3080079,-2.87030341,0],[103.3071784,-2.87065112,0],[103.3064049,-2.87110707,0],[103.3058281,-2.8717986,0],[103.3053027,-2.87253254,0],[103.3047151,-2.87321414,0],[103.3040432,-2.87381532,0],[103.3034911,-2.87451485,0],[103.3032688,-2.87539044,0],[103.3031659,-2.87628666,0],[103.3032195,-2.8771889,0],[103.3033003,-2.87808953,0],[103.3034406,-2.87898219,0],[103.3036654,-2.87985757,0],[103.3039227,-2.88072404,0],[103.3041889,-2.88158777,0],[103.304559,-2.88241079,0],[103.3050176,-2.88318857,0],[103.3054945,-2.88395526,0],[103.3059756,-2.8847192,0],[103.3064644,-2.88547829,0],[103.3069476,-2.88624098,0],[103.3074397,-2.88699774,0],[103.3080622,-2.88764705,0],[103.3087761,-2.88819668,0],[103.3095438,-2.8886656,0],[103.310349,-2.88906867,0],[103.3110901,-2.88956653,0],[103.3116248,-2.89029341,0],[103.3121382,-2.89103566,0],[103.3125057,-2.89185854,0],[103.3127685,-2.89272335,0],[103.3130127,-2.89359366,0],[103.3132655,-2.89446153,0],[103.3134889,-2.89533734,0],[103.3135891,-2.89623386,0],[103.3135534,-2.89713727,0],[103.3133991,-2.89802363,0],[103.3130431,-2.89885366,0],[103.3125323,-2.89959256,0],[103.3118948,-2.90023034,0],[103.3113585,-2.90094895,0],[103.3110386,-2.90179406,0],[103.3107457,-2.90264884,0],[103.3107493,-2.90354055,0],[103.3109313,-2.90442612,0],[103.311187,-2.90529157,0],[103.3115655,-2.9061116,0],[103.3120099,-2.90689765,0],[103.3125627,-2.90760535,0],[103.3132762,-2.90815484,0],[103.3140332,-2.90864264,0],[103.3148218,-2.90907666,0],[103.3156398,-2.90945253,0],[103.3164449,-2.90985456,0],[103.3172166,-2.91031889,0],[103.3180103,-2.91074002,0],[103.3188577,-2.9110414,0],[103.3197409,-2.91120698,0],[103.3206319,-2.91132977,0],[103.3214692,-2.91161896,0],[103.3220314,-2.91231876,0],[103.3224523,-2.91311785,0],[103.3226116,-2.91398463,0],[103.3222094,-2.91478109,0],[103.3215414,-2.91538492,0],[103.3208598,-2.91597452,0],[103.3200974,-2.91642687,0],[103.3192126,-2.91658878,0],[103.3183269,-2.91674619,0],[103.3174387,-2.91688862,0],[103.3165507,-2.91703251,0],[103.3156607,-2.91716252,0],[103.3147688,-2.9172779,0],[103.3138711,-2.91733229,0],[103.3129738,-2.9173928,0],[103.3120834,-2.91752033,0],[103.3111948,-2.91766069,0],[103.3103055,-2.91779574,0],[103.3094756,-2.91812657,0],[103.308876,-2.91878066,0],[103.3086138,-2.91964347,0],[103.3084236,-2.92052623,0],[103.3083299,-2.9214256,0],[103.3082252,-2.92232352,0],[103.3081481,-2.92322398,0],[103.3080234,-2.92411948,0],[103.3078713,-2.92501013,0],[103.3076386,-2.92588315,0],[103.307568,-2.92678292,0],[103.3076358,-2.9276843,0],[103.3078364,-2.9285625,0],[103.3082027,-2.92938806,0],[103.3084985,-2.93024121,0],[103.3086555,-2.93113053,0],[103.3087451,-2.93203028,0],[103.3087571,-2.93293315,0],[103.3085049,-2.93379686,0],[103.3081544,-2.93462968,0],[103.307799,-2.93546042,0],[103.3074106,-2.93627583,0],[103.3069493,-2.93705093,0],[103.3063939,-2.93776182,0],[103.305695,-2.93832899,0],[103.3049931,-2.93889341,0],[103.3045552,-2.93966109,0],[103.3043607,-2.94054218,0],[103.3038234,-2.94124901,0],[103.3032079,-2.94189492,0],[103.3028391,-2.94271935,0],[103.303104,-2.94349788,0],[103.3038418,-2.94401476,0],[103.304575,-2.94453705,0],[103.30493,-2.94531262,0],[103.3047766,-2.94618696,0],[103.3050629,-2.94704378,0],[103.305392,-2.94788532,0],[103.3057136,-2.94872981,0],[103.3060441,-2.94957083,0],[103.3063782,-2.95041037,0],[103.3067093,-2.95125111,0],[103.3070365,-2.95209345,0],[103.3073687,-2.95293379,0],[103.3077008,-2.95377415,0],[103.3078606,-2.95465775,0],[103.3078395,-2.9555618,0],[103.3078297,-2.95646604,0],[103.3078031,-2.95736985,0],[103.3077196,-2.9582702,0],[103.3076374,-2.95917068,0],[103.30758,-2.96007308,0],[103.3075512,-2.96097691,0],[103.3074341,-2.96187163,0],[103.3072243,-2.96275063,0],[103.3070327,-2.96363069,0],[103.3064521,-2.96431517,0],[103.3058165,-2.96495503,0],[103.3051848,-2.96559868,0],[103.3045503,-2.96623961,0],[103.3039044,-2.96686889,0],[103.30325,-2.96748934,0],[103.3025977,-2.96811167,0],[103.3019766,-2.96876572,0],[103.3013679,-2.96943143,0],[103.3008104,-2.97013984,0],[103.3003362,-2.97090795,0],[103.2995747,-2.97127335,0],[103.2986919,-2.97110246,0],[103.2978116,-2.97091679,0],[103.2969266,-2.9707556,0],[103.2960345,-2.9706416,0],[103.2951368,-2.97058623,0],[103.2942394,-2.97061433,0],[103.2933419,-2.97057656,0],[103.2924557,-2.97042293,0],[103.2915859,-2.97019298,0],[103.2907192,-2.96995159,0],[103.2898487,-2.96972519,0],[103.2889744,-2.96951421,0],[103.2881315,-2.9692002,0],[103.287309,-2.96883447,0],[103.2864458,-2.96862696,0],[103.2855839,-2.96888016,0],[103.2847532,-2.9692231,0],[103.2839728,-2.9696725,0],[103.2832504,-2.97020819,0],[103.2826809,-2.97090605,0],[103.2821882,-2.97166238,0],[103.2817902,-2.97247262,0],[103.2814296,-2.97330016,0],[103.2813592,-2.97419935,0],[103.2815429,-2.97508109,0],[103.2816941,-2.97597109,0],[103.2817868,-2.97687049,0],[103.2818745,-2.97777041,0],[103.2818565,-2.97867351,0],[103.2816593,-2.97955347,0],[103.2812696,-2.98036401,0],[103.2806238,-2.98099269,0],[103.2800203,-2.98166216,0],[103.279621,-2.98246802,0],[103.2793468,-2.98332923,0],[103.2791838,-2.98421369,0],[103.2789541,-2.98507248,0],[103.2784422,-2.98581593,0],[103.2779594,-2.98657874,0],[103.277514,-2.9873643,0],[103.2771183,-2.98817612,0],[103.2768281,-2.98903164,0],[103.2765288,-2.98988264,0],[103.2760581,-2.99065311,0],[103.2756226,-2.99144425,0],[103.2750661,-2.99214006,0],[103.2742484,-2.99250874,0],[103.2733543,-2.99256947,0],[103.2724711,-2.99271447,0],[103.2717062,-2.9931837,0],[103.2710382,-2.99378699,0],[103.2703647,-2.99438313,0],[103.2696603,-2.99494529,0],[103.2688971,-2.99542162,0],[103.268205,-2.99597216,0],[103.2677643,-2.99676041,0],[103.2673785,-2.99757684,0],[103.2669818,-2.99838833,0],[103.2665698,-2.99919106,0],[103.2666598,-3.00005933,0],[103.2671554,-3.00080962,0],[103.2677812,-3.00145839,0],[103.2685934,-3.0018106,0],[103.269484,-3.00193583,0],[103.2703815,-3.00199173,0],[103.2712374,-3.00220755,0],[103.271964,-3.00273887,0],[103.2723262,-3.00355341,0],[103.2726997,-3.00433507,0],[103.2732502,-3.00497606,0],[103.2736076,-3.00580389,0],[103.2737582,-3.00669374,0],[103.2738244,-3.00759558,0],[103.2739005,-3.0084966,0],[103.2739653,-3.00939849,0],[103.2740159,-3.01030134,0],[103.2740624,-3.01120442,0],[103.2741143,-3.0121069,0],[103.2743346,-3.01298286,0],[103.274434,-3.01387603,0],[103.2741691,-3.01473398,0],[103.2735181,-3.01535351,0],[103.2727573,-3.01583027,0],[103.2719213,-3.01616146,0],[103.2710829,-3.01648698,0],[103.2703424,-3.01699904,0],[103.2695957,-3.01750312,0],[103.2687812,-3.01788098,0],[103.2679695,-3.01825608,0],[103.2672733,-3.01882767,0],[103.2665213,-3.01932127,0],[103.2656708,-3.01959452,0],[103.2647752,-3.01967834,0],[103.2638823,-3.01978731,0],[103.2629921,-3.01979941,0],[103.2621548,-3.01946991,0],[103.2613,-3.01919295,0],[103.26041,-3.01906363,0],[103.2595152,-3.01897235,0],[103.2586178,-3.01890998,0],[103.2577226,-3.01882196,0],[103.2568289,-3.01871943,0],[103.2559335,-3.01864153,0],[103.2550971,-3.0189416,0],[103.2544797,-3.01958675,0],[103.2540425,-3.02037691,0],[103.2535964,-3.02116214,0],[103.2531213,-3.02192946,0],[103.2526264,-3.0226845,0],[103.2523545,-3.02353476,0],[103.2525048,-3.02442297,0],[103.2527078,-3.02530359,0],[103.2529063,-3.02618479,0],[103.2533414,-3.0269733,0],[103.2538906,-3.02768696,0],[103.2545726,-3.02827656,0],[103.2552586,-3.02886136,0],[103.2559301,-3.02946205,0],[103.2565156,-3.03014818,0],[103.2570919,-3.03084256,0],[103.257648,-3.03155243,0],[103.2577469,-3.0324132,0],[103.2574341,-3.03326036,0],[103.2569674,-3.03403165,0],[103.2562916,-3.03461415,0],[103.2554195,-3.03476259,0],[103.2545207,-3.03472598,0],[103.2536346,-3.03459923,0],[103.2527962,-3.03427157,0],[103.2519497,-3.0339661,0],[103.2510804,-3.03373656,0],[103.2501925,-3.03359395,0],[103.2492946,-3.03356141,0],[103.2484029,-3.03367213,0],[103.2475267,-3.03387541,0],[103.2467315,-3.03428766,0],[103.2460418,-3.03486574,0],[103.2454637,-3.035558,0],[103.2449025,-3.0362646,0],[103.244431,-3.03703056,0],[103.2442086,-3.03790587,0],[103.2441074,-3.03880145,0],[103.2438967,-3.03966511,0],[103.2430997,-3.0400112,0],[103.2422185,-3.03984976,0],[103.2413666,-3.03955959,0],[103.2405209,-3.03925145,0],[103.2396611,-3.03898738,0],[103.2387804,-3.0388128,0],[103.2378818,-3.03878222,0],[103.2369823,-3.03877738,0],[103.2360859,-3.03870893,0],[103.2352435,-3.03840994,0],[103.2344103,-3.03819627,0],[103.2336872,-3.03872914,0],[103.2329952,-3.03930696,0],[103.2322998,-3.03988028,0],[103.2316674,-3.0405179,0],[103.2311163,-3.04123244,0],[103.2307936,-3.04205456,0],[103.2306875,-3.04295251,0],[103.2305962,-3.04385211,0],[103.2305,-3.04475118,0],[103.230409,-3.04565073,0],[103.2305169,-3.04652548,0],[103.231046,-3.04724933,0],[103.2310475,-3.0481477,0],[103.2317087,-3.04870753,0],[103.2324129,-3.04925795,0],[103.2325969,-3.05012268,0],[103.2324164,-3.05100541,0],[103.2318917,-3.05172238,0],[103.2311863,-3.05228358,0],[103.2304852,-3.05285001,0],[103.2297871,-3.05342029,0],[103.229104,-3.05400822,0],[103.2284574,-3.05463674,0],[103.2277175,-3.05514421,0],[103.2268562,-3.05540052,0],[103.2259847,-3.05562434,0],[103.2251133,-3.0558485,0],[103.2242298,-3.0560118,0],[103.2233314,-3.05605544,0],[103.2224337,-3.05611225,0],[103.2215816,-3.0563255,0],[103.2211005,-3.05708582,0],[103.2207161,-3.05790331,0],[103.2206913,-3.05875754,0],[103.2212024,-3.05949971,0],[103.2217369,-3.06022639,0],[103.2222525,-3.06096739,0],[103.2227494,-3.06172096,0],[103.2230616,-3.06255896,0],[103.2231134,-3.06346152,0],[103.2231448,-3.06436523,0],[103.2231735,-3.06526897,0],[103.2232164,-3.06617218,0],[103.2232526,-3.06707567,0],[103.2232737,-3.06797969,0],[103.223293,-3.06888375,0],[103.2233248,-3.06978736,0],[103.2234668,-3.07067888,0],[103.22374,-3.07154024,0],[103.2241697,-3.07232218,0],[103.2247546,-3.07300693,0],[103.2253833,-3.07365089,0],[103.2259475,-3.07435516,0],[103.2265068,-3.07506338,0],[103.2270671,-3.07577078,0],[103.2276264,-3.07647903,0],[103.2281832,-3.07718894,0],[103.2283862,-3.07804019,0],[103.2279149,-3.07877019,0],[103.2272536,-3.07938314,0],[103.2265602,-3.07995848,0],[103.2257779,-3.08040194,0],[103.2249244,-3.08067687,0],[103.2240455,-3.08086565,0],[103.2232823,-3.08133554,0],[103.222585,-3.08190671,0],[103.2218757,-3.08246268,0],[103.2211639,-3.08301482,0],[103.2206472,-3.08375071,0],[103.2199529,-3.0841166,0],[103.2192143,-3.08360089,0],[103.2184308,-3.08316029,0],[103.2176102,-3.08331388,0],[103.217049,-3.08401934,0],[103.2164173,-3.08466253,0],[103.2159943,-3.08545166,0],[103.2157546,-3.08632085,0],[103.2158738,-3.08721383,0],[103.2160253,-3.08810484,0],[103.2160434,-3.08900558,0],[103.215638,-3.08980198,0],[103.2150734,-3.09050491,0],[103.2143592,-3.09104466,0],[103.2135259,-3.09138376,0],[103.212881,-3.09200834,0],[103.2122576,-3.0926597,0],[103.2117288,-3.09339075,0],[103.211091,-3.09402563,0],[103.2102937,-3.09435997,0],[103.2094443,-3.09406546,0],[103.2085575,-3.09393434,0],[103.2078295,-3.09441639,0],[103.2071288,-3.09496406,0],[103.2062634,-3.09514491,0],[103.2054221,-3.09482982,0],[103.2045459,-3.09485981,0],[103.2037094,-3.09519182,0],[103.2028234,-3.09533898,0],[103.2019283,-3.09542792,0],[103.2010702,-3.09569117,0],[103.200227,-3.0960016,0],[103.1993317,-3.0960867,0],[103.1984509,-3.0959456,0],[103.1976127,-3.09561855,0],[103.1967219,-3.09556745,0],[103.1958694,-3.09584729,0],[103.195024,-3.09615614,0],[103.1941887,-3.09649,0],[103.193366,-3.09685002,0],[103.1924726,-3.09686591,0],[103.1915853,-3.09691988,0],[103.19083,-3.09740181,0],[103.1903282,-3.09815081,0],[103.1899153,-3.09895341,0],[103.1896377,-3.09981246,0],[103.1894885,-3.10070069,0],[103.1895079,-3.1016029,0],[103.1892827,-3.10247451,0],[103.1888777,-3.10328126,0],[103.1887714,-3.10416861,0],[103.1885416,-3.10499715,0],[103.187688,-3.10526571,0],[103.1867978,-3.10537461,0],[103.1859253,-3.10516117,0],[103.1850622,-3.1049064,0],[103.1842209,-3.10458837,0],[103.183376,-3.10428297,0],[103.1824819,-3.10419036,0],[103.1815954,-3.10431227,0],[103.1807298,-3.10455739,0],[103.1798819,-3.10485925,0],[103.1790326,-3.10515712,0],[103.1782072,-3.10551401,0],[103.177477,-3.10603249,0],[103.1768568,-3.10668167,0],[103.1760884,-3.10714961,0],[103.1753204,-3.10761515,0],[103.1745072,-3.10800088,0],[103.1736627,-3.10830981,0],[103.1728463,-3.10868792,0],[103.1719695,-3.10887725,0],[103.1710763,-3.1089845,0],[103.1701896,-3.10913423,0],[103.1693053,-3.10929926,0],[103.1684183,-3.10926395,0],[103.1675604,-3.10900957,0],[103.1667648,-3.10937724,0],[103.1662125,-3.11007208,0],[103.1658088,-3.11088002,0],[103.1652799,-3.11160725,0],[103.1646204,-3.1122221,0],[103.1639917,-3.11286847,0],[103.1633138,-3.11346227,0],[103.162734,-3.11415245,0],[103.1623094,-3.11494163,0],[103.1621515,-3.11583128,0],[103.1615896,-3.11645395,0],[103.1607075,-3.11654662,0],[103.1598121,-3.11646108,0],[103.1589148,-3.11639795,0],[103.1580527,-3.11661354,0],[103.1571841,-3.11682659,0],[103.1563134,-3.11703553,0],[103.1554855,-3.11738842,0],[103.1546353,-3.11767527,0],[103.1538837,-3.11812357,0],[103.1536204,-3.11897747,0],[103.1536458,-3.119881,0],[103.1535413,-3.12077646,0],[103.1534135,-3.12166895,0],[103.1536818,-3.12252659,0],[103.1536927,-3.12341915,0],[103.1535444,-3.12431097,0],[103.153372,-3.12519755,0],[103.1530999,-3.12605939,0],[103.1526487,-3.12683485,0],[103.1519967,-3.12745257,0],[103.1511761,-3.1277879,0],[103.1502826,-3.12786586,0],[103.149403,-3.12768185,0],[103.148536,-3.12744104,0],[103.147646,-3.12740235,0],[103.1468433,-3.12779832,0],[103.1461099,-3.1283215,0],[103.1453106,-3.12872547,0],[103.1444176,-3.12878004,0],[103.1436496,-3.12832536,0],[103.1428721,-3.1278748,0],[103.1420076,-3.12800516,0],[103.1413128,-3.12857172,0],[103.140796,-3.12931073,0],[103.1402398,-3.13001936,0],[103.1397359,-3.13076093,0],[103.1392644,-3.13152297,0],[103.1385657,-3.13209144,0],[103.1380173,-3.1328069,0],[103.1374665,-3.13352144,0],[103.1367541,-3.1340695,0],[103.1359765,-3.13452298,0],[103.1351485,-3.13487606,0],[103.134367,-3.13532295,0],[103.1336388,-3.13584839,0],[103.1330024,-3.13648703,0],[103.1322172,-3.13690882,0],[103.1313529,-3.13715873,0],[103.1304703,-3.13733119,0],[103.1295765,-3.13743079,0],[103.1286831,-3.13753392,0],[103.127801,-3.13770822,0],[103.1269255,-3.13791468,0],[103.1260364,-3.13803628,0],[103.1251735,-3.13824848,0],[103.1243969,-3.13870457,0],[103.1236435,-3.13919792,0],[103.1228624,-3.13964008,0],[103.1220107,-3.13982979,0],[103.1212229,-3.13940162,0],[103.1204833,-3.13888696,0],[103.1197059,-3.13843459,0],[103.1189405,-3.13796172,0],[103.1181521,-3.13752704,0],[103.1173742,-3.1370739,0],[103.1166223,-3.13657751,0],[103.1157882,-3.13625266,0],[103.114894,-3.13618581,0],[103.1139954,-3.13622643,0],[103.1131075,-3.13634571,0],[103.1122435,-3.13659034,0],[103.1113557,-3.13673526,0],[103.11046,-3.13676899,0],[103.1095624,-3.13673575,0],[103.1086746,-3.13686235,0],[103.1079513,-3.13734805,0],[103.1076806,-3.13820949,0],[103.1071205,-3.13888698,0],[103.1064985,-3.13952795,0],[103.1060018,-3.14028077,0],[103.1054473,-3.14099212,0],[103.1049314,-3.14173238,0],[103.1046895,-3.1425936,0],[103.1047777,-3.14349301,0],[103.1047406,-3.14439488,0],[103.1047001,-3.1452971,0],[103.1047741,-3.14619819,0],[103.1048291,-3.14710058,0],[103.1047963,-3.14800371,0],[103.1048352,-3.14890655,0],[103.1047658,-3.14980603,0],[103.1048241,-3.15069864,0],[103.1051035,-3.151558,0],[103.1053995,-3.15241162,0],[103.1054161,-3.15330562,0],[103.1055048,-3.15419573,0],[103.1059724,-3.15495866,0],[103.1066412,-3.15553477,0],[103.1069215,-3.15639367,0],[103.1071897,-3.15725556,0],[103.1073077,-3.15815051,0],[103.1073351,-3.15905392,0],[103.1075018,-3.15993888,0],[103.1079885,-3.16068288,0],[103.108821,-3.16099829,0],[103.1096369,-3.16134852,0],[103.1099389,-3.16217496,0],[103.1099552,-3.16307859,0],[103.1100198,-3.16397887,0],[103.1103022,-3.16483353,0],[103.1103589,-3.16571372,0],[103.1100067,-3.16654094,0],[103.1098417,-3.16742391,0],[103.1092135,-3.16806776,0],[103.1085137,-3.168635,0],[103.1077708,-3.16914284,0],[103.1069289,-3.1694578,0],[103.1060505,-3.16964661,0],[103.10518,-3.16986558,0],[103.1043786,-3.17027223,0],[103.10353,-3.17054755,0],[103.1026344,-3.17062691,0],[103.1017552,-3.17081734,0],[103.1008768,-3.17101199,0],[103.0999918,-3.17116985,0],[103.0991013,-3.17129435,0],[103.0982113,-3.17142308,0],[103.0973281,-3.17159357,0],[103.0964311,-3.17164203,0],[103.0955318,-3.17162777,0],[103.0946324,-3.17164403,0],[103.0937362,-3.17158285,0],[103.0928719,-3.17133741,0],[103.0920204,-3.17104614,0],[103.0911609,-3.17078113,0],[103.0902679,-3.17074285,0],[103.0894765,-3.17115558,0],[103.0887344,-3.17166409,0],[103.0878744,-3.1718833,0],[103.0869905,-3.17202467,0],[103.0861461,-3.17233322,0],[103.0853983,-3.17282284,0],[103.0848376,-3.17352631,0],[103.0841767,-3.17413965,0],[103.0835118,-3.17474819,0],[103.0828155,-3.17532054,0],[103.0821426,-3.17592036,0],[103.0816109,-3.17664096,0],[103.0815612,-3.1775296,0],[103.0817999,-3.17840128,0],[103.0820385,-3.17927304,0],[103.0823141,-3.18013367,0],[103.0822775,-3.18101707,0],[103.0820384,-3.18188869,0],[103.0816663,-3.18270907,0],[103.0809931,-3.18329673,0],[103.0802921,-3.18384962,0],[103.0799755,-3.18468771,0],[103.0800793,-3.18557617,0],[103.0802446,-3.1864638,0],[103.080472,-3.18733368,0],[103.0808674,-3.18814189,0],[103.0807819,-3.18902074,0],[103.0801266,-3.18963153,0],[103.0793964,-3.19015942,0],[103.0787204,-3.19075461,0],[103.0781751,-3.19147147,0],[103.0776414,-3.19219882,0],[103.0770477,-3.19287743,0],[103.0764882,-3.1935854,0],[103.0759319,-3.1942958,0],[103.0755507,-3.19511013,0],[103.0752381,-3.19595702,0],[103.0746739,-3.19665213,0],[103.0739181,-3.19713912,0],[103.0731409,-3.19759132,0],[103.0725803,-3.19827959,0],[103.0722261,-3.19911045,0],[103.071951,-3.19996837,0],[103.0721047,-3.20084788,0],[103.0725376,-3.20163811,0],[103.0731831,-3.20226609,0],[103.0737856,-3.20293527,0],[103.0742763,-3.20368694,0],[103.0745546,-3.20454329,0],[103.074299,-3.20540233,0],[103.0737474,-3.2061111,0],[103.0731547,-3.20678546,0],[103.0728257,-3.20762625,0],[103.0722407,-3.20830261,0],[103.0715669,-3.20889949,0],[103.0707902,-3.20935473,0],[103.0700422,-3.2098565,0],[103.0693021,-3.21037034,0],[103.0685521,-3.21086952,0],[103.0678062,-3.21137487,0],[103.0669968,-3.21176639,0],[103.0662252,-3.21222462,0],[103.0655437,-3.21281384,0],[103.0648848,-3.21342935,0],[103.0641775,-3.21398684,0],[103.0634245,-3.21448158,0],[103.0626751,-3.21498164,0],[103.0619752,-3.2155451,0],[103.0614686,-3.21628751,0],[103.0611125,-3.21711752,0],[103.0607606,-3.21794964,0],[103.0603569,-3.21875692,0],[103.0599023,-3.21953713,0],[103.0595253,-3.22035652,0],[103.059145,-3.22117139,0],[103.0585221,-3.22182296,0],[103.0579244,-3.22249654,0],[103.0575703,-3.22332561,0],[103.0572211,-3.22415766,0],[103.0571417,-3.22505652,0],[103.056858,-3.22591197,0],[103.0568731,-3.22679486,0],[103.0569309,-3.22767328,0],[103.0563481,-3.22835003,0],[103.0556216,-3.22888184,0],[103.0547844,-3.22920137,0],[103.0539111,-3.22939653,0],[103.0532921,-3.23002617,0],[103.053038,-3.23089272,0],[103.0527432,-3.23174021,0],[103.0521811,-3.23244464,0],[103.051572,-3.2331099,0],[103.0509902,-3.23379905,0],[103.0503391,-3.23441675,0],[103.0495019,-3.23472547,0],[103.0487477,-3.2351896,0],[103.0481642,-3.23587748,0],[103.0476785,-3.23663699,0],[103.0470961,-3.23732292,0],[103.0467237,-3.23813367,0],[103.046435,-3.23898349,0],[103.0456786,-3.23944113,0],[103.0448082,-3.23966917,0],[103.043921,-3.2398036,0],[103.0430289,-3.23969645,0],[103.0421392,-3.23956874,0],[103.0414147,-3.24002527,0],[103.0410413,-3.24084683,0],[103.040586,-3.24162645,0],[103.0401281,-3.24240452,0],[103.0396352,-3.24316073,0],[103.0392397,-3.24396904,0],[103.039213,-3.24401372,0]]}}]}